CCSDS_OMM_VERS = 2.0
CREATION_DATE  = 
ORIGINATOR     = 

OBJECT_NAME    = STARLINK-35743
OBJECT_ID      = 2025-268X
CENTER_NAME    = EARTH
REF_FRAME      = TEME
TIME_SYSTEM    = UTC
MEAN_ELEMENT_THEORY = SGP/SGP4

EPOCH          = 2025-12-17T06:55:14.457792
MEAN_MOTION    = 15.50648449
ECCENTRICITY   = .00003513
INCLINATION    = 42.9978
RA_OF_ASC_NODE = 94.4975
ARG_OF_PERICENTER = 293.5476
MEAN_ANOMALY   = 66.5347

EPHEMERIS_TYPE = 0
CLASSIFICATION_TYPE = U
NORAD_CAT_ID   = 66578
ELEMENT_SET_NO = 999
REV_AT_EPOCH   = 533
BSTAR          = .13255092E-2
MEAN_MOTION_DOT = .78396E-3
MEAN_MOTION_DDOT = 0

CCSDS_OMM_VERS = 2.0
CREATION_DATE  = 
ORIGINATOR     = 

OBJECT_NAME    = STARLINK-35868
OBJECT_ID      = 2025-268Y
CENTER_NAME    = EARTH
REF_FRAME      = TEME
TIME_SYSTEM    = UTC
MEAN_ELEMENT_THEORY = SGP/SGP4

EPOCH          = 2025-12-17T14:38:32.536320
MEAN_MOTION    = 15.50644886
ECCENTRICITY   = .00021563
INCLINATION    = 43.0020
RA_OF_ASC_NODE = 92.6128
ARG_OF_PERICENTER = 335.1769
MEAN_ANOMALY   = 24.8987

EPHEMERIS_TYPE = 0
CLASSIFICATION_TYPE = U
NORAD_CAT_ID   = 66579
ELEMENT_SET_NO = 999
REV_AT_EPOCH   = 538
BSTAR          = .13318962E-2
MEAN_MOTION_DOT = .78772E-3
MEAN_MOTION_DDOT = 0

CCSDS_OMM_VERS = 2.0
CREATION_DATE  = 
ORIGINATOR     = 

OBJECT_NAME    = STARLINK-35872
OBJECT_ID      = 2025-268Z
CENTER_NAME    = EARTH
REF_FRAME      = TEME
TIME_SYSTEM    = UTC
MEAN_ELEMENT_THEORY = SGP/SGP4

EPOCH          = 2025-12-17T08:27:00.606240
MEAN_MOTION    = 15.50616138
ECCENTRICITY   = .00023547
INCLINATION    = 42.9994
RA_OF_ASC_NODE = 94.1142
ARG_OF_PERICENTER = 284.9963
MEAN_ANOMALY   = 75.0636

EPHEMERIS_TYPE = 0
CLASSIFICATION_TYPE = U
NORAD_CAT_ID   = 66580
ELEMENT_SET_NO = 999
REV_AT_EPOCH   = 534
BSTAR          = .10525788E-2
MEAN_MOTION_DOT = .61984E-3
MEAN_MOTION_DDOT = 0

CCSDS_OMM_VERS = 2.0
CREATION_DATE  = 
ORIGINATOR     = 

OBJECT_NAME    = STARLINK-35744
OBJECT_ID      = 2025-268AA
CENTER_NAME    = EARTH
REF_FRAME      = TEME
TIME_SYSTEM    = UTC
MEAN_ELEMENT_THEORY = SGP/SGP4

EPOCH          = 2025-12-17T14:37:33.144096
MEAN_MOTION    = 15.50633677
ECCENTRICITY   = .00004179
INCLINATION    = 42.9999
RA_OF_ASC_NODE = 92.6034
ARG_OF_PERICENTER = 288.5637
MEAN_ANOMALY   = 71.5177

EPHEMERIS_TYPE = 0
CLASSIFICATION_TYPE = U
NORAD_CAT_ID   = 66581
ELEMENT_SET_NO = 999
REV_AT_EPOCH   = 538
BSTAR          = .11462892E-2
MEAN_MOTION_DOT = .6762E-3
MEAN_MOTION_DDOT = 0

CCSDS_OMM_VERS = 2.0
CREATION_DATE  = 
ORIGINATOR     = 

OBJECT_NAME    = STARLINK-35746
OBJECT_ID      = 2025-268AB
CENTER_NAME    = EARTH
REF_FRAME      = TEME
TIME_SYSTEM    = UTC
MEAN_ELEMENT_THEORY = SGP/SGP4

EPOCH          = 2025-12-16T15:25:40.461888
MEAN_MOTION    = 15.50594828
ECCENTRICITY   = .00019721
INCLINATION    = 43.0010
RA_OF_ASC_NODE = 98.2522
ARG_OF_PERICENTER = 274.4376
MEAN_ANOMALY   = 85.6259

EPHEMERIS_TYPE = 0
CLASSIFICATION_TYPE = U
NORAD_CAT_ID   = 66582
ELEMENT_SET_NO = 999
REV_AT_EPOCH   = 523
BSTAR          = .11306109E-2
MEAN_MOTION_DOT = .66591E-3
MEAN_MOTION_DDOT = 0

CCSDS_OMM_VERS = 2.0
CREATION_DATE  = 
ORIGINATOR     = 

OBJECT_NAME    = STARLINK-35941
OBJECT_ID      = 2025-268AC
CENTER_NAME    = EARTH
REF_FRAME      = TEME
TIME_SYSTEM    = UTC
MEAN_ELEMENT_THEORY = SGP/SGP4

EPOCH          = 2025-12-17T08:25:31.533888
MEAN_MOTION    = 15.50647835
ECCENTRICITY   = .00018765
INCLINATION    = 42.9991
RA_OF_ASC_NODE = 94.1057
ARG_OF_PERICENTER = 187.7575
MEAN_ANOMALY   = 172.3257

EPHEMERIS_TYPE = 0
CLASSIFICATION_TYPE = U
NORAD_CAT_ID   = 66583
ELEMENT_SET_NO = 999
REV_AT_EPOCH   = 534
BSTAR          = .17018479E-2
MEAN_MOTION_DOT = .101045E-2
MEAN_MOTION_DDOT = 0

CCSDS_OMM_VERS = 2.0
CREATION_DATE  = 
ORIGINATOR     = 

OBJECT_NAME    = STARLINK-35939
OBJECT_ID      = 2025-268AD
CENTER_NAME    = EARTH
REF_FRAME      = TEME
TIME_SYSTEM    = UTC
MEAN_ELEMENT_THEORY = SGP/SGP4

EPOCH          = 2025-12-17T08:25:02.020512
MEAN_MOTION    = 15.50616148
ECCENTRICITY   = .00014233
INCLINATION    = 42.9988
RA_OF_ASC_NODE = 94.1028
ARG_OF_PERICENTER = 248.6994
MEAN_ANOMALY   = 111.3715

EPHEMERIS_TYPE = 0
CLASSIFICATION_TYPE = U
NORAD_CAT_ID   = 66584
ELEMENT_SET_NO = 999
REV_AT_EPOCH   = 534
BSTAR          = .10334427E-2
MEAN_MOTION_DOT = .60839E-3
MEAN_MOTION_DDOT = 0

CCSDS_OMM_VERS = 2.0
CREATION_DATE  = 
ORIGINATOR     = 

OBJECT_NAME    = STARLINK-35963
OBJECT_ID      = 2025-268AE
CENTER_NAME    = EARTH
REF_FRAME      = TEME
TIME_SYSTEM    = UTC
MEAN_ELEMENT_THEORY = SGP/SGP4

EPOCH          = 2025-12-17T08:24:32.457024
MEAN_MOTION    = 15.50631925
ECCENTRICITY   = .00023779
INCLINATION    = 42.9984
RA_OF_ASC_NODE = 94.1002
ARG_OF_PERICENTER = 280.9473
MEAN_ANOMALY   = 79.1119

EPHEMERIS_TYPE = 0
CLASSIFICATION_TYPE = U
NORAD_CAT_ID   = 66585
ELEMENT_SET_NO = 999
REV_AT_EPOCH   = 534
BSTAR          = .1204031E-2
MEAN_MOTION_DOT = .71075E-3
MEAN_MOTION_DDOT = 0

CCSDS_OMM_VERS = 2.0
CREATION_DATE  = 
ORIGINATOR     = 

OBJECT_NAME    = TJS-21
OBJECT_ID      = 2025-269A
CENTER_NAME    = EARTH
REF_FRAME      = TEME
TIME_SYSTEM    = UTC
MEAN_ELEMENT_THEORY = SGP/SGP4

EPOCH          = 2025-12-10T17:31:22.184832
MEAN_MOTION    = 2.00567425
ECCENTRICITY   = .6805766
INCLINATION    = 63.2690
RA_OF_ASC_NODE = 162.5612
ARG_OF_PERICENTER = 269.7806
MEAN_ANOMALY   = 18.6565

EPHEMERIS_TYPE = 0
CLASSIFICATION_TYPE = U
NORAD_CAT_ID   = 66586
ELEMENT_SET_NO = 999
REV_AT_EPOCH   = 39
BSTAR          = -.44965385E-1
MEAN_MOTION_DOT = .1083E-4
MEAN_MOTION_DDOT = 0

CCSDS_OMM_VERS = 2.0
CREATION_DATE  = 
ORIGINATOR     = 

OBJECT_NAME    = CZ-3B R/B
OBJECT_ID      = 2025-269B
CENTER_NAME    = EARTH
REF_FRAME      = TEME
TIME_SYSTEM    = UTC
MEAN_ELEMENT_THEORY = SGP/SGP4

EPOCH          = 2025-12-17T04:50:14.865216
MEAN_MOTION    = 2.03937792
ECCENTRICITY   = .75168551
INCLINATION    = 51.3435
RA_OF_ASC_NODE = 168.6023
ARG_OF_PERICENTER = 229.5038
MEAN_ANOMALY   = 36.3416

EPHEMERIS_TYPE = 0
CLASSIFICATION_TYPE = U
NORAD_CAT_ID   = 66587
ELEMENT_SET_NO = 999
REV_AT_EPOCH   = 54
BSTAR          = .55683527E-3
MEAN_MOTION_DOT = .72738E-3
MEAN_MOTION_DDOT = -.918653E-6

CCSDS_OMM_VERS = 2.0
CREATION_DATE  = 
ORIGINATOR     = 

OBJECT_NAME    = STARLINK-36076
OBJECT_ID      = 2025-270A
CENTER_NAME    = EARTH
REF_FRAME      = TEME
TIME_SYSTEM    = UTC
MEAN_ELEMENT_THEORY = SGP/SGP4

EPOCH          = 2025-12-17T14:23:33.345600
MEAN_MOTION    = 15.40749909
ECCENTRICITY   = .00023081
INCLINATION    = 42.9991
RA_OF_ASC_NODE = 164.7736
ARG_OF_PERICENTER = 251.0448
MEAN_ANOMALY   = 109.0158

EPHEMERIS_TYPE = 0
CLASSIFICATION_TYPE = U
NORAD_CAT_ID   = 66588
ELEMENT_SET_NO = 999
REV_AT_EPOCH   = 509
BSTAR          = .12687583E-2
MEAN_MOTION_DOT = .53156E-3
MEAN_MOTION_DDOT = 0

CCSDS_OMM_VERS = 2.0
CREATION_DATE  = 
ORIGINATOR     = 

OBJECT_NAME    = STARLINK-35447
OBJECT_ID      = 2025-270B
CENTER_NAME    = EARTH
REF_FRAME      = TEME
TIME_SYSTEM    = UTC
MEAN_ELEMENT_THEORY = SGP/SGP4

EPOCH          = 2025-12-17T14:00:03.000384
MEAN_MOTION    = 15.40716349
ECCENTRICITY   = .00012251
INCLINATION    = 42.9989
RA_OF_ASC_NODE = 164.6271
ARG_OF_PERICENTER = 287.0334
MEAN_ANOMALY   = 81.7963

EPHEMERIS_TYPE = 0
CLASSIFICATION_TYPE = U
NORAD_CAT_ID   = 66589
ELEMENT_SET_NO = 999
REV_AT_EPOCH   = 528
BSTAR          = .17960447E-3
MEAN_MOTION_DOT = .721E-4
MEAN_MOTION_DDOT = 0

