STARLINK-35743          
1 66578U 25268X   25351.28836178  .00078396  00000+0  13255-2 0  9994
2 66578  42.9978  94.4975 0000351 293.5476  66.5347 15.50648449  5334
STARLINK-35868          
1 66579U 25268Y   25351.61009880  .00078772  00000+0  13319-2 0  9993
2 66579  43.0020  92.6128 0002156 335.1769  24.8987 15.50644886  5381
STARLINK-35872          
1 66580U 25268Z   25351.35209035  .00061984  00000+0  10526-2 0  9994
2 66580  42.9994  94.1142 0002354 284.9963  75.0636 15.50616138  5345
STARLINK-35744          
1 66581U 25268AA  25351.60941139  .00067620  00000+0  11463-2 0  9995
2 66581  42.9999  92.6034 0000417 288.5637  71.5177 15.50633677  5382
STARLINK-35746          
1 66582U 25268AB  25350.64282942  .00066591  00000+0  11306-2 0  9991
2 66582  43.0010  98.2522 0001972 274.4376  85.6259 15.50594828  5239
STARLINK-35941          
1 66583U 25268AC  25351.35105942  .00101045  00000+0  17018-2 0  9995
2 66583  42.9991  94.1057 0001876 187.7575 172.3257 15.50647835  5345
STARLINK-35939          
1 66584U 25268AD  25351.35071783  .00060839  00000+0  10334-2 0  9990
2 66584  42.9988  94.1028 0001423 248.6994 111.3715 15.50616148  5345
STARLINK-35963          
1 66585U 25268AE  25351.35037566  .00071075  00000+0  12040-2 0  9992
2 66585  42.9984  94.1002 0002377 280.9473  79.1119 15.50631925  5343
TJS-21                  
1 66586U 25269A   25344.73011788  .00001083  00000+0 -44965-1 0  9999
2 66586  63.2690 162.5612 6805766 269.7806  18.6565  2.00567425   392
CZ-3B R/B               
1 66587U 25269B   25351.20156094  .00072738 -91865-6  55684-3 0  9993
2 66587  51.3435 168.6023 7516855 229.5038  36.3416  2.03937792   541
STARLINK-36076          
1 66588U 25270A   25351.59969150  .00053156  00000+0  12688-2 0  9995
2 66588  42.9991 164.7736 0002308 251.0448 109.0158 15.40749909  5096
STARLINK-35447          
1 66589U 25270B   25351.58336806  .00007210  00000+0  17960-3 0  9990
2 66589  42.9989 164.6271 0001225 287.0334  81.7963 15.40716349  5280
